{"type": "FeatureCollection", "features": [ {"type": "Feature", "properties": {"norad_id": 62339, "name": "GPS BIII-7  (PRN 01)", "group": "gps-ops", "lat": 35.68699330893805, "lon": 11.560116283748252, "alt_km": 20160.093164682003, "timestamp": "2025-12-24T09:46:31.263235+00:00", "meta": {"OBJECT_NAME": "GPS BIII-7  (PRN 01)", "OBJECT_ID": "2024-242A", "EPOCH": "2025-12-22T12:02:33.556992", "MEAN_MOTION": 2.00568132, "ECCENTRICITY": 0.00128077, "INCLINATION": 54.9208, "RA_OF_ASC_NODE": 341.3454, "ARG_OF_PERICENTER": 346.2078, "MEAN_ANOMALY": 123.2241, "EPHEMERIS_TYPE": 0, "CLASSIFICATION_TYPE": "U", "NORAD_CAT_ID": 62339, "ELEMENT_SET_NO": 999, "REV_AT_EPOCH": 771, "BSTAR": 0, "MEAN_MOTION_DOT": -6.9e-07, "MEAN_MOTION_DDOT": 0}, "tle": {"line1": "1 62339U 24242A   25356.50177728 -.00000069  00000+0  00000+0 0  9999", "line2": "2 62339  54.9208 341.3454 0012807 346.2078 123.2241  2.00568132  7712"}}, "geometry": {"type": "Point", "coordinates": [11.560116283748252, 35.68699330893805]}}, {"type": "Feature", "properties": {"norad_id": 64202, "name": "GPS BIII-8  (PRN 21)", "group": "gps-ops", "lat": -41.78654231123539, "lon": -103.2610430760737, "alt_km": 20183.898174467307, "timestamp": "2025-12-24T09:46:31.263247+00:00", "meta": {"OBJECT_NAME": "GPS BIII-8  (PRN 21)", "OBJECT_ID": "2025-116A", "EPOCH": "2025-12-23T02:41:37.222368", "MEAN_MOTION": 2.00557654, "ECCENTRICITY": 0.0005909, "INCLINATION": 55.1129, "RA_OF_ASC_NODE": 38.2226, "ARG_OF_PERICENTER": 310.5599, "MEAN_ANOMALY": 68.781, "EPHEMERIS_TYPE": 0, "CLASSIFICATION_TYPE": "U", "NORAD_CAT_ID": 64202, "ELEMENT_SET_NO": 999, "REV_AT_EPOCH": 434, "BSTAR": 0, "MEAN_MOTION_DOT": -5.1e-07, "MEAN_MOTION_DDOT": 0}, "tle": {"line1": "1 64202U 25116A   25357.11223637 -.00000051  00000+0  00000+0 0  9991", "line2": "2 64202  55.1129  38.2226 0005909 310.5599  68.7810  2.00557654  4342"}}, "geometry": {"type": "Point", "coordinates": [-103.2610430760737, -41.78654231123539]}}]}